CCSDS_OMM_VERS = 2.0
CREATION_DATE  = 
ORIGINATOR     = 

OBJECT_NAME    = DELTA 2 R/B(1)
OBJECT_ID      = 1990-008B
CENTER_NAME    = EARTH
REF_FRAME      = TEME
TIME_SYSTEM    = UTC
MEAN_ELEMENT_THEORY = SGP/SGP4

EPOCH          = 2025-12-29T11:27:04.506336
MEAN_MOTION    = 15.46741607
ECCENTRICITY   = .0108204
INCLINATION    = 35.6063
RA_OF_ASC_NODE = 272.3377
ARG_OF_PERICENTER = 330.0607
MEAN_ANOMALY   = 29.3969

EPHEMERIS_TYPE = 0
CLASSIFICATION_TYPE = U
NORAD_CAT_ID   = 20453
ELEMENT_SET_NO = 999
REV_AT_EPOCH   = 91522
BSTAR          = .1012E-2
MEAN_MOTION_DOT = .66303E-3
MEAN_MOTION_DDOT = 0

CCSDS_OMM_VERS = 2.0
CREATION_DATE  = 
ORIGINATOR     = 

OBJECT_NAME    = COSMOS 2058
OBJECT_ID      = 1990-010A
CENTER_NAME    = EARTH
REF_FRAME      = TEME
TIME_SYSTEM    = UTC
MEAN_ELEMENT_THEORY = SGP/SGP4

EPOCH          = 2025-12-29T18:46:32.911968
MEAN_MOTION    = 15.10649909
ECCENTRICITY   = .0009835
INCLINATION    = 82.4711
RA_OF_ASC_NODE = 116.2679
ARG_OF_PERICENTER = 210.5366
MEAN_ANOMALY   = 149.5293

EPHEMERIS_TYPE = 0
CLASSIFICATION_TYPE = U
NORAD_CAT_ID   = 20465
ELEMENT_SET_NO = 999
REV_AT_EPOCH   = 93168
BSTAR          = .4236E-3
MEAN_MOTION_DOT = .704E-4
MEAN_MOTION_DDOT = 0

CCSDS_OMM_VERS = 2.0
CREATION_DATE  = 
ORIGINATOR     = 

OBJECT_NAME    = SL-14 R/B
OBJECT_ID      = 1990-010B
CENTER_NAME    = EARTH
REF_FRAME      = TEME
TIME_SYSTEM    = UTC
MEAN_ELEMENT_THEORY = SGP/SGP4

EPOCH          = 2025-12-29T09:44:22.254432
MEAN_MOTION    = 14.83488651
ECCENTRICITY   = .00200937
INCLINATION    = 82.5026
RA_OF_ASC_NODE = 333.3937
ARG_OF_PERICENTER = 166.9927
MEAN_ANOMALY   = 193.1811

EPHEMERIS_TYPE = 0
CLASSIFICATION_TYPE = U
NORAD_CAT_ID   = 20466
ELEMENT_SET_NO = 999
REV_AT_EPOCH   = 91806
BSTAR          = .87207935E-4
MEAN_MOTION_DOT = .743E-5
MEAN_MOTION_DDOT = 0

CCSDS_OMM_VERS = 2.0
CREATION_DATE  = 
ORIGINATOR     = 

OBJECT_NAME    = SL-14 R/B
OBJECT_ID      = 1990-018B
CENTER_NAME    = EARTH
REF_FRAME      = TEME
TIME_SYSTEM    = UTC
MEAN_ELEMENT_THEORY = SGP/SGP4

EPOCH          = 2025-12-29T19:53:09.212640
MEAN_MOTION    = 14.82066362
ECCENTRICITY   = .0015546
INCLINATION    = 82.5221
RA_OF_ASC_NODE = 288.3936
ARG_OF_PERICENTER = 326.7842
MEAN_ANOMALY   = 33.2394

EPHEMERIS_TYPE = 0
CLASSIFICATION_TYPE = U
NORAD_CAT_ID   = 20511
ELEMENT_SET_NO = 999
REV_AT_EPOCH   = 91223
BSTAR          = .91769E-4
MEAN_MOTION_DOT = .753E-5
MEAN_MOTION_DDOT = 0

CCSDS_OMM_VERS = 2.0
CREATION_DATE  = 
ORIGINATOR     = 

OBJECT_NAME    = HST
OBJECT_ID      = 1990-037B
CENTER_NAME    = EARTH
REF_FRAME      = TEME
TIME_SYSTEM    = UTC
MEAN_ELEMENT_THEORY = SGP/SGP4

EPOCH          = 2025-12-29T12:15:16.469856
MEAN_MOTION    = 15.28271296
ECCENTRICITY   = .0002577
INCLINATION    = 28.4653
RA_OF_ASC_NODE = 158.3162
ARG_OF_PERICENTER = 64.1454
MEAN_ANOMALY   = 295.9407

EPHEMERIS_TYPE = 0
CLASSIFICATION_TYPE = U
NORAD_CAT_ID   = 20580
ELEMENT_SET_NO = 999
REV_AT_EPOCH   = 76256
BSTAR          = .34412E-3
MEAN_MOTION_DOT = .9987E-4
MEAN_MOTION_DDOT = 0

CCSDS_OMM_VERS = 2.0
CREATION_DATE  = 
ORIGINATOR     = 

OBJECT_NAME    = SL-16 R/B
OBJECT_ID      = 1990-046B
CENTER_NAME    = EARTH
REF_FRAME      = TEME
TIME_SYSTEM    = UTC
MEAN_ELEMENT_THEORY = SGP/SGP4

EPOCH          = 2025-12-29T15:23:38.324256
MEAN_MOTION    = 14.14997877
ECCENTRICITY   = .0012482
INCLINATION    = 70.9992
RA_OF_ASC_NODE = 85.0275
ARG_OF_PERICENTER = 44.5288
MEAN_ANOMALY   = 315.6835

EPHEMERIS_TYPE = 0
CLASSIFICATION_TYPE = U
NORAD_CAT_ID   = 20625
ELEMENT_SET_NO = 999
REV_AT_EPOCH   = 83848
BSTAR          = .71785E-4
MEAN_MOTION_DOT = .91E-6
MEAN_MOTION_DDOT = 0

CCSDS_OMM_VERS = 2.0
CREATION_DATE  = 
ORIGINATOR     = 

OBJECT_NAME    = COSMOS 2084
OBJECT_ID      = 1990-055A
CENTER_NAME    = EARTH
REF_FRAME      = TEME
TIME_SYSTEM    = UTC
MEAN_ELEMENT_THEORY = SGP/SGP4

EPOCH          = 2025-12-29T20:13:09.719040
MEAN_MOTION    = 15.05125701
ECCENTRICITY   = .0028918
INCLINATION    = 62.7890
RA_OF_ASC_NODE = 213.7138
ARG_OF_PERICENTER = 177.0912
MEAN_ANOMALY   = 183.0362

EPHEMERIS_TYPE = 0
CLASSIFICATION_TYPE = U
NORAD_CAT_ID   = 20663
ELEMENT_SET_NO = 999
REV_AT_EPOCH   = 92580
BSTAR          = .30428E-3
MEAN_MOTION_DOT = .419E-4
MEAN_MOTION_DDOT = 0

CCSDS_OMM_VERS = 2.0
CREATION_DATE  = 
ORIGINATOR     = 

OBJECT_NAME    = SL-6 R/B(2)
OBJECT_ID      = 1990-055D
CENTER_NAME    = EARTH
REF_FRAME      = TEME
TIME_SYSTEM    = UTC
MEAN_ELEMENT_THEORY = SGP/SGP4

EPOCH          = 2025-12-29T17:33:29.902176
MEAN_MOTION    = 15.03164763
ECCENTRICITY   = .001472
INCLINATION    = 62.7830
RA_OF_ASC_NODE = 131.6760
ARG_OF_PERICENTER = 320.1106
MEAN_ANOMALY   = 39.8910

EPHEMERIS_TYPE = 0
CLASSIFICATION_TYPE = U
NORAD_CAT_ID   = 20666
ELEMENT_SET_NO = 999
REV_AT_EPOCH   = 92767
BSTAR          = .30531E-3
MEAN_MOTION_DOT = .3959E-4
MEAN_MOTION_DDOT = 0

CCSDS_OMM_VERS = 2.0
CREATION_DATE  = 
ORIGINATOR     = 

OBJECT_NAME    = SL-8 R/B
OBJECT_ID      = 1990-078B
CENTER_NAME    = EARTH
REF_FRAME      = TEME
TIME_SYSTEM    = UTC
MEAN_ELEMENT_THEORY = SGP/SGP4

EPOCH          = 2025-12-29T19:57:39.697344
MEAN_MOTION    = 14.86544680
ECCENTRICITY   = .0369673
INCLINATION    = 82.9054
RA_OF_ASC_NODE = 314.0046
ARG_OF_PERICENTER = 248.3300
MEAN_ANOMALY   = 107.8178

EPHEMERIS_TYPE = 0
CLASSIFICATION_TYPE = U
NORAD_CAT_ID   = 20775
ELEMENT_SET_NO = 999
REV_AT_EPOCH   = 79891
BSTAR          = .5992E-3
MEAN_MOTION_DOT = .19471E-3
MEAN_MOTION_DDOT = 0

CCSDS_OMM_VERS = 2.0
CREATION_DATE  = 
ORIGINATOR     = 

OBJECT_NAME    = SL-8 R/B
OBJECT_ID      = 1991-006B
CENTER_NAME    = EARTH
REF_FRAME      = TEME
TIME_SYSTEM    = UTC
MEAN_ELEMENT_THEORY = SGP/SGP4

EPOCH          = 2025-12-29T16:11:31.862112
MEAN_MOTION    = 13.77492941
ECCENTRICITY   = .0021446
INCLINATION    = 82.9410
RA_OF_ASC_NODE = 222.1161
ARG_OF_PERICENTER = 229.5378
MEAN_ANOMALY   = 189.0953

EPHEMERIS_TYPE = 0
CLASSIFICATION_TYPE = U
NORAD_CAT_ID   = 21088
ELEMENT_SET_NO = 999
REV_AT_EPOCH   = 75443
BSTAR          = .65399E-4
MEAN_MOTION_DOT = .8E-6
MEAN_MOTION_DDOT = 0

CCSDS_OMM_VERS = 2.0
CREATION_DATE  = 
ORIGINATOR     = 

OBJECT_NAME    = OKEAN-3
OBJECT_ID      = 1991-039A
CENTER_NAME    = EARTH
REF_FRAME      = TEME
TIME_SYSTEM    = UTC
MEAN_ELEMENT_THEORY = SGP/SGP4

EPOCH          = 2025-12-29T12:18:14.090976
MEAN_MOTION    = 15.04226006
ECCENTRICITY   = .00137102
INCLINATION    = 82.5165
RA_OF_ASC_NODE = 44.8106
ARG_OF_PERICENTER = 202.4269
MEAN_ANOMALY   = 157.6360

EPHEMERIS_TYPE = 0
CLASSIFICATION_TYPE = U
NORAD_CAT_ID   = 21397
ELEMENT_SET_NO = 999
REV_AT_EPOCH   = 85448
BSTAR          = .31166294E-3
MEAN_MOTION_DOT = .4366E-4
MEAN_MOTION_DDOT = 0

CCSDS_OMM_VERS = 2.0
CREATION_DATE  = 
ORIGINATOR     = 

OBJECT_NAME    = COSMOS 2151
OBJECT_ID      = 1991-042A
CENTER_NAME    = EARTH
REF_FRAME      = TEME
TIME_SYSTEM    = UTC
MEAN_ELEMENT_THEORY = SGP/SGP4

EPOCH          = 2025-12-29T18:29:29.103936
MEAN_MOTION    = 14.99762288
ECCENTRICITY   = .0011399
INCLINATION    = 82.4967
RA_OF_ASC_NODE = 151.0905
ARG_OF_PERICENTER = 298.6505
MEAN_ANOMALY   = 61.3571

EPHEMERIS_TYPE = 0
CLASSIFICATION_TYPE = U
NORAD_CAT_ID   = 21422
ELEMENT_SET_NO = 999
REV_AT_EPOCH   = 85271
BSTAR          = .30316E-3
MEAN_MOTION_DOT = .3776E-4
MEAN_MOTION_DDOT = 0

