DELTA 2 R/B(1)          
1 20453U 90008B   25363.47713549  .00066303  00000+0  10120-2 0  9993
2 20453  35.6063 272.3377 0108204 330.0607  29.3969 15.46741607915222
COSMOS 2058             
1 20465U 90010A   25363.78232537  .00007040  00000+0  42360-3 0  9991
2 20465  82.4711 116.2679 0009835 210.5366 149.5293 15.10649909931686
SL-14 R/B               
1 20466U 90010B   25363.40581313  .00000743  00000+0  87208-4 0  9994
2 20466  82.5026 333.3937 0020093 166.9927 193.1811 14.83488651918064
SL-14 R/B               
1 20511U 90018B   25363.82857885  .00000753  00000+0  91769-4 0  9997
2 20511  82.5221 288.3936 0015546 326.7842  33.2394 14.82066362912232
HST                     
1 20580U 90037B   25363.51060729  .00009987  00000+0  34412-3 0  9992
2 20580  28.4653 158.3162 0002577  64.1454 295.9407 15.28271296762561
SL-16 R/B               
1 20625U 90046B   25363.64141579  .00000091  00000+0  71785-4 0  9991
2 20625  70.9992  85.0275 0012482  44.5288 315.6835 14.14997877838487
COSMOS 2084             
1 20663U 90055A   25363.84247360  .00004190  00000+0  30428-3 0  9992
2 20663  62.7890 213.7138 0028918 177.0912 183.0362 15.05125701925805
SL-6 R/B(2)             
1 20666U 90055D   25363.73159609  .00003959  00000+0  30531-3 0  9998
2 20666  62.7830 131.6760 0014720 320.1106  39.8910 15.03164763927676
SL-8 R/B                
1 20775U 90078B   25363.83170946  .00019471  00000+0  59920-3 0  9991
2 20775  82.9054 314.0046 0369673 248.3300 107.8178 14.86544680798915
SL-8 R/B                
1 21088U 91006B   25363.67467433  .00000080  00000+0  65399-4 0  9997
2 21088  82.9410 222.1161 0021446 229.5378 189.0953 13.77492941754438
OKEAN-3                 
1 21397U 91039A   25363.51266309  .00004366  00000+0  31166-3 0  9993
2 21397  82.5165  44.8106 0013710 202.4269 157.6360 15.04226006854484
COSMOS 2151             
1 21422U 91042A   25363.77047574  .00003776  00000+0  30316-3 0  9995
2 21422  82.4967 151.0905 0011399 298.6505  61.3571 14.99762288852710
